LocationId,Latitude,Longitude,PostalCode,State,City
1,34.4266787,-119.7111968,93101,CA,Santa Barbara
2,38.551126,-90.335695,63123,MO,Affton
3,32.223236,-110.880452,85711,AZ,Tucson
4,39.9555052,-75.1555641,19107,PA,Philadelphia
5,40.3381827,-75.4716585,18054,PA,Green Lane
6,36.269593,-87.058943,37015,TN,Ashland City
7,38.627695,-90.340465,63144,MO,Brentwood
8,27.76659,-82.732983,33707,FL,St. Petersburg
9,38.5651648,-90.3210868,63123,MO,Affton
10,36.2081024,-86.7681696,37207,TN,Nashville
11,28.1904587953,-82.4573802199,34639,FL,Land O' Lakes
12,27.9552692,-82.4563199,33602,FL,Tampa Bay
13,39.6371332838,-86.127217412,46227,IN,Indianapolis
14,27.966235,-82.787412,33755,FL,Clearwater
15,27.9161159,-82.7604608,33771,FL,Largo
16,39.953949,-75.1432262,19106,PA,Philadelphia
17,32.2298719,-110.9723419,85705,AZ,Tucson
18,29.9414679565,-90.129952757,70118,LA,New Orleans
19,29.981183,-90.2540123,70062,LA,Kenner
20,39.943223,-75.162568,19147,PA,Philadelphia
21,53.5460453,-113.4991693,T5J 1B9,AB,Edmonton
22,39.91382,-86.105739,46240,IN,Indianapolis
23,39.9043203184,-86.0530799,46250,IN,Indianapolis
24,39.4761165,-119.7893392,89502,NV,Reno
25,36.2485696,-86.7199857,37115,TN,Nashville
26,40.2734926,-74.987496,18940,PA,Newtown
27,34.4202089255,-119.7004597389,93101,CA,Santa Barbara
28,36.1598858,-86.7731974,37201,TN,Nashville
29,39.9398245705,-75.1574465632,19147,PA,Philadelphia
30,36.4647467622,-86.6591868908,37188,TN,White House
31,43.6167635,-116.2853821,83704,ID,Boise
32,40.0224662,-75.218314,19127,PA,Philadelphia
33,40.0415845065,-75.4849526577,19301,PA,Paoli
34,40.0067071,-75.289671,19003,PA,Ardmore
35,29.951359,-90.0646715,70130,LA,New Orleans
36,39.9625821,-75.1356571,19123,PA,Philadelphia
37,40.029962,-75.630607,19341,PA,Exton
38,39.822176,-75.546007,19803,DE,Wilmington
39,38.8043945,-89.9497332,62025,IL,Edwardsville
40,39.5401545,-119.7483949,89431,NV,Sparks
41,39.7874644177,-86.2514209,46224,IN,Indianapolis
42,38.896563,-90.1862032987,62002,IL,Alton
43,39.915478,-75.016973,08002,NJ,Cherry Hill
44,40.00687,-75.217262,19004,PA,Bala Cynwyd
45,39.9152704301,-75.3426812589,19064,PA,Springfield
46,32.1323047,-110.9999851,85746,AZ,Tucson
47,53.5446819,-113.506589,T5J 1L7,AB,Edmonton
48,36.1483712,-86.7988947,37203,TN,Nashville
49,38.5175856,-90.0219285,62226,IL,Belleville
50,40.0283575,-75.2380841,19004,PA,Bala Cynwyd
51,27.8083394,-82.6361678,33704,FL,St. Petersburg
52,39.9693,-86.1650024,46032,IN,Carmel
53,53.547205,-113.522448,T5K 2T7,AB,Edmonton
54,53.5496333,-113.5087799,T5H 3B2,AB,Edmonton
55,28.0103596,-82.4300416,33610,FL,Tampa
56,39.8562475317,-75.6946098804,19348,PA,Kennett Square
57,32.186794,-110.954765,85713,AZ,Tucson
58,40.1161788,-75.2825254,19462,PA,Plymouth Meeting
59,28.0462028173,-82.5050526736,33618,FL,Tampa
60,27.9605142,-82.506127,33607,FL,Tampa
61,29.8754822266,-90.04938,70058,LA,Harvey
62,39.9062952,-86.0474634,46250,IN,Indianapolis
63,39.8699114,-86.1435773,46220,IN,Indianapolis
64,27.9954501644,-82.5081187,33614,FL,Tampa
65,39.9615417,-75.6036042,19380,PA,West Chester
66,29.958431,-90.065173,70130,LA,New Orleans
67,43.6434944,-116.4360004,83646,ID,Meridian
68,32.2503237,-110.9036553,85712,AZ,Tucson
69,39.913292,-86.20083,46260,IN,Indianapolis
70,28.3326007,-82.6681066,34667,FL,Hudson
71,39.5139704538,-119.8472038094,89408,NV,Fernley
72,36.1036135,-86.8162678,37215,TN,Nashville
73,39.749361,-75.643331,19850,DE,Wilmington
74,39.6968014,-74.9998214,08094,NJ,Williamstown
75,27.8553467494,-82.7363080904,33782,FL,Pinellas Park
76,39.9036968861,-75.2949812448,19036,PA,Glenolden
77,39.9404026,-75.1932966,19146,PA,Philadelphia
78,53.4893123495,-113.4855665582,T6E 5B7,AB,Edmonton
79,32.221667,-110.925833,85707,AZ,Tucson
80,28.1962523878,-82.3806153496,33544,FL,Wesley Chapel
81,39.958734,-86.016966,46038,IN,Fishers
82,39.8755319,-86.0828565,46220,IN,Indianapolis
83,39.954573,-75.1948936,19104,PA,Philadelphia
84,40.0416285,-74.8258209,08016,NJ,Burlington
85,40.0723302045,-75.0484833435,19152,PA,Philadelphia
86,34.4144445,-119.6906718,93101,CA,Santa Barbara
87,38.7162443,-89.8858296,62294,IL,Troy
88,29.9506467229,-90.0744274301,70112,LA,New Orleans
89,39.9466899,-75.123327,08102,NJ,Camden
90,36.1626492,-86.7759733,37201,TN,Nashville
91,39.6949931921,-86.4230714504,46168,IN,Plainfield
92,34.4196198,-119.6770319,93103,CA,Santa Barbara
93,39.7709745063,-86.0711718384,46219,IN,Indianapolis
94,27.890814,-82.5023464,33611,FL,Tampa
95,40.1131212,-74.9145975,19020,PA,Bensalem
96,38.6135761,-90.3223828,63143,MO,Maplewood
97,29.9559253,-90.0629624,70130,LA,New Orleans
98,39.476518,-119.7840369,89502,NV,Reno
99,43.6141936,-116.3525001,83642,ID,Meridian
100,38.6172724,-90.2127841,63104,MO,Saint Louis
101,40.0722036,-74.9644197,19020,PA,Bensalem
102,39.913836,-86.1079073,46240,IN,Indianapolis
103,38.6012982,-89.9896835,62208,IL,Fairview Heights
104,29.9554151,-90.0700619,70112,LA,New Orleans
105,39.7320886,-75.6256733,19808,DE,Wilmington
106,32.4263727,-110.9592405,85755,AZ,Oro Valley
107,27.7694046,-82.767317,33706,FL,Treasure Island
108,40.1690207,-75.0093159,18966,PA,Southampton
109,40.2844964,-75.207999,18914,PA,Chalfont
110,40.1428489,-75.1143791,19090,PA,Willow Grove
111,38.5832229,-90.4071872,63122,MO,Saint Louis
112,39.824552,-74.929032,08043,NJ,Voorhees
113,38.6001971,-90.2135377,63118,MO,Saint Louis
114,43.6478323,-116.3520706,83713,ID,Boise
115,28.1477204,-82.7425681,34689,FL,Tarpon Springs
116,39.9198090864,-75.157802746,19148,PA,Philadelphia
117,27.7747314,-82.6402836,33701,FL,St. Petersburg
118,40.1490655,-75.3060284,19422,PA,Blue Bell
119,30.0032388544,-90.146487573,70002,LA,Metairie
120,36.002397,-86.7023814,37027,TN,Brentwood
121,34.420334,-119.7107494,93101,CA,Santa Barbara
122,32.2358661,-110.9036755,85712,AZ,Tucson
123,36.0263631408,-86.7894728157,37027,TN,Brentwood
124,39.9748805,-75.1832618,19121,PA,Philadelphia
125,39.7500892,-86.2575225,46241,IN,Indianapolis
126,32.2215422,-110.8221011,85710,AZ,Tucson
127,32.3385723,-111.0107602,85741,AZ,Tucson
128,30.0042804,-90.1813221,70006,LA,Metairie
129,27.9586132,-82.5325949,33607,FL,Tampa
130,39.8444681,-75.1248703,08096,NJ,Woodbury
131,39.963077709,-75.1680274529,19130,PA,Philadelphia
132,29.9333877563,-90.079498291,70115,LA,New Orleans
133,32.206315,-110.887843,85711,AZ,Tucson
134,39.7628744,-86.3257127,46231,IN,Indianapolis
135,39.8591499,-86.3964221,46112,IN,Brownsburg
136,40.140914,-75.3123146,19401,PA,Norristown
137,28.1961683557,-82.464425454,34639,FL,Land O Lakes
138,32.2891826,-110.9572299,85718,AZ,Tucson
139,36.1676590439,-86.6582959,37214,TN,Nashville
140,39.999084,-86.131076,46032,IN,Carmel
141,27.935753,-82.4764699,33606,FL,Tampa
142,34.4087147,-119.6850187,93101,CA,Santa Barbara
143,39.9490268625,-75.1471895999,19106,PA,Philadelphia
144,40.1064092,-74.9739371,19154,PA,Philadelphia
145,39.632279734,-86.158674289,46143,IN,Greenwood
146,39.5371788,-119.7355322,89434,NV,Sparks
147,27.7713566,-82.6586115,33713,FL,Saint Petersburg
148,39.523904,-119.777525,89595,NV,Reno
149,39.6531323637,-86.135859,46227,IN,Indianapolis
150,39.942515,-75.156468,19147,PA,Philadelphia
151,39.914404,-86.107287,46240,IN,Indianapolis
152,39.9470334,-75.1574339,19107,PA,Philadelphia
153,39.7291579,-86.1544775,46225,IN,Indianapolis
154,27.894167,-82.779866,33771,FL,Largo
155,36.142642,-86.7708619,37203,TN,Nashville
156,29.9670548,-90.0658282,70116,LA,New Orleans
157,43.6119488,-116.2711098,83704,ID,Boise
158,39.877374,-75.394007,19015,PA,Brookhaven
159,39.985661,-75.3148439,19083,PA,Haverford
160,36.162799,-86.776016,37201,TN,Nashville
161,27.8931855254,-82.6876049487,33762,FL,Clearwater
162,36.112075744,-86.7674462724,37204,TN,Nashville
163,40.0978388,-75.1558378,19038,PA,Glenside
164,39.973753,-74.995949,08057,NJ,Moorestown
165,36.0982798,-86.8714149,37205,TN,Nashville
166,36.296536,-86.700179,37115,TN,Madison
167,38.568086,-90.475388,63021,MO,Saint Louis
168,40.2668877,-74.8056572,08628,NJ,Ewing
169,39.5309239,-119.8122604,89501,NV,Reno
170,39.7371,-86.1391,46203,IN,Indianapolis
171,34.4241297,-119.7053211,93101,CA,Santa Barbara
172,53.5114948,-113.6450474,T5T 4M2,AB,Edmonton
173,28.0458684582,-82.515059,33618,FL,Tampa
174,32.2280919,-110.9698038,85705,AZ,Tucson
175,39.5174106,-119.7783471,89502,NV,Reno
176,38.5022786,-90.00616971,62220,IL,Belleville
177,40.1502639,-74.8448876,19055,PA,Levittown
178,39.7667851,-86.12748,46201,IN,Indianapolis
179,39.5576887,-119.791299,89512,NV,Reno
180,39.9690954,-75.2255953,19131,PA,Philadelphia
181,39.831468,-75.058986,08012,NJ,Gloucester Township
182,36.2115923083,-86.6943191727,37214,TN,Nashville
183,39.8649175,-75.4275762,19014,PA,Aston
184,27.9251193,-82.7959877,33770,FL,Largo
185,38.6361966,-90.3457542,63117,MO,Saint Louis
186,27.8652573,-82.3260903,33569,FL,Riverview
187,27.7972626,-82.7339127,33710,FL,Saint Petersburg
188,53.5599789914,-113.6162690363,T5S 2X1,AB,Edmonton
189,28.0548882706,-82.3995484,33617,FL,Tampa
190,29.8753202,-90.045817,70058,LA,Harvey
191,39.9565280024,-75.178013742,19103,PA,Philadelphia
192,40.2295269733,-75.1310898382,18976,PA,Warrington
193,40.076229,-75.155305,19095,PA,Wyncote
194,38.6124951839,-90.2219420671,63104,MO,St. Louis
195,39.9727224,-75.3154587,19083,PA,Havertown
196,32.2104465,-110.9535711,85749,AZ,Tucson
197,43.62001,-116.21279,83702,ID,Boise
198,27.798503,-82.7987502,33708,FL,Madeira Beach
199,28.192191035,-82.396367,33559,FL,Lutz
200,40.012141,-75.1150148,19124,PA,Philadelphia
201,40.2177843,-74.9265858,19047,PA,Langhorne
202,32.3475108,-111.0165608,85742,AZ,Tucson
203,40.1124813,-75.3799748,19406,PA,King of Prussia
204,53.525585,-113.427076,T6B 0P2,AB,Edmonton
205,39.5062237,-119.8167371,89509,NV,Reno
206,39.9764555,-75.1270254,19125,PA,Philadelphia
207,39.976614,-86.130124,46032,IN,Carmel
208,38.3935,-90.0107,62285,IL,Smithton
209,32.4058647729,-110.949274038,85737,AZ,Oro Valley
210,39.781126,-86.1241235,46201,IN,Indianapolis
211,40.094306,-75.1352466,19046,PA,Jenkintown
212,36.1688337591,-86.766910851,37213,TN,Nashville
213,39.7725103235,-86.1626825258,46204,IN,Indianapolis
214,27.9657471097,-82.7989008,33755,FL,Clearwater
215,27.9987001903,-82.5822531301,33615,FL,Tampa
216,40.1884442241,-74.8773210502,19047,PA,Langhorne
217,32.2226061,-110.877255,85711,AZ,Tucson
218,39.9791075,-75.2177555,19131,PA,Philadelphia
219,38.5857552,-90.2768425,63109,MO,Saint Louis
220,34.4143420056,-119.6873324599,93105,CA,Santa Barbara
221,39.852159,-74.98264,08043,NJ,Voorhees
222,39.8887246,-86.1212129,46240,IN,Indianapolis
223,28.2502179787,-82.6824409515,34653,FL,New Port Richey
224,39.9606643,-75.6054882,19380,PA,West Chester
225,28.09236,-82.500588,33618,FL,Tampa
226,38.4641559029,-90.3716691032,63129,MO,St. Louis
227,39.4289221,-119.754142,89521,NV,Reno
228,34.3982982,-119.725931,93109,CA,Santa Barbara
229,39.7627741475,-86.3793863588,46123,IN,Avon
230,38.704765,-90.299811,63121,MO,Normandy
231,40.0475203,-75.4091453,19087,PA,Wayne
232,29.976762,-90.086423,70119,LA,New Orleans
233,36.0360616142,-86.7973280942,37027,TN,Brentwood
234,32.2218494,-110.92845,85716,AZ,Tucson
235,32.3387235226,-111.0303098651,85741,AZ,Tucson
236,39.9385518,-75.1496356,19147,PA,Philadelphia
237,39.9250893,-86.0342432,46256,IN,Indianapolis
238,39.4369354248,-119.7573776245,89521,NV,Reno
239,32.193246,-110.839627,85730,AZ,Tucson
240,39.9489024,-75.153854,19106,PA,Philadelphia
241,39.4928018965,-119.7929971762,89502,NV,Reno
242,27.9232395,-82.402873,33619,FL,Tampa
243,28.0787347875,-82.5063104158,33618,FL,Tampa
244,28.0699667,-82.4187315,33613,FL,Tampa
245,43.6072576,-116.2127303,83706,ID,Boise
246,35.9565328581,-86.8027199385,37067,TN,Franklin
247,40.1197128,-75.0097103,19019,PA,Philadelphia
248,39.7672488945,-86.1567753553,46204,IN,Indianapolis
249,32.2792548,-111.0095518,85705,AZ,Tuscon
250,39.9516153765,-75.2033457223,19104,PA,Philadelphia
251,27.9371659,-82.2699586,33511,FL,Brandon
252,40.0021177,-75.3004009,19003,PA,Ardmore
253,39.904342,-86.0631561,46250,IN,Indianapolis
254,29.9486236188,-90.1312502816,70118,LA,New Orleans
255,27.9803985924,-82.5377866183,33607,FL,Tampa
256,29.9991154,-90.0607732,70122,LA,New Orleans
257,27.9767745,-82.5374233,33607,FL,Tampa
258,40.0612774187,-75.2372046062,19128,PA,Philadelphia
259,43.6196488,-116.3871392,83642,ID,Meridian
260,39.5323474847,-119.804255405,89512,NV,Reno
261,32.2457767,-110.8573874,85715,AZ,Tucson
262,40.0676702282,-75.4496971643,19312,PA,Berwyn
263,39.9603427,-75.141951,19123,PA,Philadelphia
264,28.0022293,-82.5943283,33615,FL,TAMPA
265,53.625071,-113.6166452,T8N 5H9,AB,St Albert
266,30.0063304534,-90.1793702454,70006,LA,Metairie
267,39.9768798,-75.1161695,19125,PA,Philadelphia
268,29.9231001,-90.0883492,70115,LA,New Orleans
269,27.5843003458,-82.6139500829,34250,FL,Terra Ceia
270,39.827681,-86.135008,46205,IN,Indianapolis
271,32.196817,-110.9656358,85713,AZ,Tucson
272,53.5515508,-113.4951554,T5H 0V6,AB,Edmonton
273,36.107591,-86.813774,37215,TN,Nashville
274,39.9304833,-75.329557,19064,PA,Delaware County
275,39.9563959,-75.2253784,19139,PA,Philadelphia
276,28.055212,-82.399374,33617,FL,Tampa
277,39.9412993,-75.1477446,19147,PA,Philadelphia
278,32.398472,-110.9542611,85737,AZ,Oro Valley
279,29.95029,-90.074887,70163,LA,New Orleans
280,36.1859086,-86.6274188,37076,TN,Hermitage
281,39.8433769,-86.3977735,46112,IN,Brownsburg
282,39.9497345,-75.165436,19102,PA,Philadelphia
283,29.9510658,-90.0715323,70130,LA,New Orleans
284,40.0695589,-75.1995308,19118,PA,Philadelphia
285,40.008645,-75.288802,19003,PA,Ardmore
286,40.3311267851,-75.1371342508,18901,PA,Doylestown
287,28.0112177255,-82.6113298722,33635,FL,Tampa
288,28.0464757264,-82.3928064047,33617,FL,Temple Terrace
289,40.1197128,-75.0097103,19019,PA,Philadelphia
290,39.752691,-86.140975,46203,IN,Indianapolis
291,36.191654,-86.6254189,37076,TN,Hermitage
292,36.1530043,-86.8433279,37209,TN,Nashville
293,40.0062075104,-75.7044510304,19335,PA,Downingtown
294,53.5426345,-113.3111322,T8H 2A3,AB,Sherwood Park
295,27.9419745389,-82.5053069603,33609,FL,Tampa
296,32.3622562294,-111.1197053374,85743,AZ,Tucson
297,39.305224,-119.652596,89440,NV,Virginia City
298,40.0079839104,-75.2126064939,19004,PA,Bala Cynwyd
299,39.8911246892,-75.2342512699,19153,PA,Philadelphia
300,39.9722710087,-75.3138364272,19083,PA,Havertown
301,38.6380462,-90.2480607,63108,MO,Saint Louis
302,39.963042,-75.1741858944,19130,PA,Philadelphia
303,53.5612008627,-113.5670928251,T5P 3M8,AB,Edmonton
304,27.9989575,-82.4514338,33604,FL,Tampa
305,39.92745,-75.1660349,19148,PA,Philadelphia
306,32.4221017,-110.9623526,85737,AZ,Oro Valley
307,39.987801,-75.757578,19335,PA,Downingtown
308,39.955126798,-75.1574422458,19107,PA,Philadelphia
309,40.23547,-74.7532115132,08638,NJ,Trenton
310,35.9292046,-86.9195922,37064,TN,Franklin
311,39.949452,-75.1670279,19102,PA,Philadelphia
312,40.0870701,-75.0353514,19115,PA,Philadelphia
313,40.0839955,-75.0354963,19115,PA,Philadelphia
314,40.1447023,-74.934106,19020,PA,Bensalem
315,32.2356889,-110.9464624,85719,AZ,Tucson
316,27.806517,-82.749065,33709,FL,Saint Petersburg
317,35.9326054453,-86.860662065,37064,TN,Franklin
318,39.9389483,-75.1564078,19147,PA,Philadelphia
319,30.0017108,-90.1146572,70124,LA,New Orleans
320,32.2509598946,-110.9591583204,85719,AZ,Tucson
321,38.5844866,-90.266699,63116,MO,Saint Louis
322,29.9635911,-90.0292571,70117,LA,New Orleans
323,39.8654263,-75.0680731,08031,NJ,Bellmawr
324,32.252342,-110.841512,85715,AZ,Tucson
325,29.9504773,-90.0679445,70130,LA,New Orleans
326,32.424551,-111.042885,85658,AZ,Marana
327,27.8037453386,-82.8031028436,33708,FL,Madeira Beach
328,39.612805,-86.112796,46142,IN,Greenwood
329,27.8798076,-82.4936332,33611,FL,Tampa
330,39.9254629,-75.173622,19145,PA,Philadelphia
331,40.1613222658,-75.3808923571,19403,PA,Norristown
332,29.8938336797,-89.9798587105,70037,LA,Belle Chasse
333,39.699929,-86.2416313,46221,IN,Indianapolis
334,29.944454,-90.133537,70118,LA,New Orleans
335,39.8490746,-75.0228262,08083,NJ,Somerdale
336,40.2012588,-75.1005572,18974,PA,Warminster
337,32.2717394,-110.9723419,85705,AZ,Tucson
338,35.9873329,-86.5469148,37167,TN,Smyrna
339,39.8790789,-75.3227924,19078,PA,Chester
340,27.9373704213,-82.3077001423,33511,FL,Brandon
341,40.0236651,-75.6291878,19341,PA,Exton
342,29.960205,-90.064396,70116,LA,New Orleans
343,27.82573,-82.694405,33714,FL,Saint Petersburg
344,38.6243584,-90.1886849,63102,MO,Saint Louis
345,27.8939198,-82.2943716,33511,FL,Brandon
346,28.0921362,-82.5785736,33556,FL,Odessa
347,32.2213692,-110.9683558,85701,AZ,Tucson
348,36.1397600339,-86.7380914652,37210,TN,Nashville
349,40.1807271,-75.1346993,19044,PA,Horsham
350,40.10001,-75.462631,19481,PA,Valley Forge
351,29.9580151,-90.0618951,70116,LA,New Orleans
352,39.8518617214,-86.3847577572,46112,IN,Brownsburg
353,29.948395,-90.075281,70113,LA,New Orleans
354,39.7382891,-75.5601479,19801,DE,Wilmington
355,27.7705318,-82.3703483,33572,FL,Apollo Beach
356,40.0536347,-75.526719,19355,PA,Malvern
357,39.9426271,-75.1650829,19147,PA,Philadelphia
358,27.9344684803,-82.2878021747,33511,FL,Brandon
359,39.9394973,-74.9743023,08052,NJ,Maple Shade
360,43.6190157662,-116.2967492044,83704,ID,Boise
361,53.436403,-113.604288,T6W 0L9,AB,Edmonton
362,40.2637063378,-75.3179157563,19446,PA,Lansdale
363,28.237112,-82.6680235,34655,FL,New Port Richey
364,40.1124281,-75.2857653,19462,PA,Plymouth Meeting
365,27.7305212,-82.7452183,33706,FL,St. Pete Beach
366,39.9368911,-75.1672837,19146,PA,Philadelphia
367,32.2319918,-110.9584924,85719,AZ,Tucson
368,40.1001131,-75.1515328,19038,PA,Glenside
369,32.2643502,-110.9593721,85719,AZ,Tucson
370,39.7970658,-86.0632112,46219,IN,Indianapolis
371,38.5920571,-90.5035651,63011,MO,Ballwin
372,53.5225968429,-113.61922974,T5T 4J2,AB,Edmonton
373,39.9506555,-75.1708991,19103,PA,Philadelphia
374,38.7461593,-90.2798145,63136,MO,Saint Louis
375,38.918418,-90.151949,62002,IL,Alton
376,32.2165669,-110.8195292,85710,AZ,Tucson
377,39.721471,-74.9016858,08018,NJ,Cedarbrook
378,28.4939582,-82.6501344,34607,FL,Spring Hill
379,36.3260267,-86.7040631,37072,TN,Goodlettsville
380,40.0468052,-75.3353875,19085,PA,Villanova
381,27.892834976,-82.7845353864,33771,FL,Largo
382,39.5428346,-119.8569115,89503,NV,Reno
383,53.570501,-113.500041,T5G 0P7,AB,Edmonton
384,27.8915738378,-82.2725105,33511,FL,Brandon
385,28.1782261,-82.7424346,34691,FL,Holiday
386,29.9411590382,-90.0789941056,70113,LA,New Orleans
387,40.0099504,-75.2591858,19072,PA,Narberth
388,27.9402059,-82.4828837,33606,FL,Tampa
389,29.9522516,-90.0545959,70114,LA,New Orleans
390,39.9736806,-75.1396479,19122,PA,Philadelphia
391,32.2097330593,-110.925515358,85716,AZ,Tucson
392,28.188219,-82.347274,33543,FL,Wesley Chapel
393,28.0420037,-82.6746125,34677,FL,Oldsmar
394,38.5662003,-90.3487106,63119,MO,Saint Louis
395,27.9464963776,-82.3555628732,33619,FL,Tampa
396,40.100524,-74.865196,19007,PA,Bristol
397,29.9544867,-90.07162,70130,LA,New Orleans
398,39.9791471518,-86.1285750488,46032,IN,Carmel
399,39.6664705333,-86.1006689072,46237,IN,Indianapolis
400,39.9096672,-86.1925912,46260,IN,Indianapolis
401,38.5061431698,-90.3806634553,63128,MO,Saint Louis
402,34.4115552,-119.8550772,93117,CA,Isla Vista
403,39.955015,-75.1642969,19102,PA,Philadelphia
404,39.7520076,-86.1395724,46203,IN,Indianapolis
405,27.8623633,-82.4981215,33602,FL,Tampa
406,30.0019130082,-90.0591484085,70122,LA,New Orleans
407,34.4126811,-119.8575491,93117,CA,Isla Vista
408,39.5282020569,-119.8347167969,89503,NV,Reno
409,28.0535153,-82.4534422,33612,FL,Tampa
410,40.0520643,-75.1273939,19126,PA,Philadelphia
411,39.771607,-86.038287,46219,IN,Indianapolis
412,40.3263279,-75.4768237,18074,PA,Perkiomenville
413,29.9695644,-90.067925,70116,LA,New Orleans
414,27.844945,-82.792501,33772,FL,Seminole
415,27.7379882,-82.7080321,33707,FL,Gulfport
416,39.7119376,-75.1109667,08028,NJ,Glassboro
417,28.2375794,-82.3471278,33543,FL,Wesley Chapel
418,36.203404,-86.694768,37214,TN,Nashville
419,27.776811,-82.641157,33701,FL,Saint Petersburg
420,27.9404107,-82.3217459,33511,FL,Brandon
421,39.9410539,-75.1454627,19147,PA,Philadelphia
422,39.9894332886,-75.2290420532,19131,PA,Philadelphia
423,39.8971069811,-75.0342256956,08033,NJ,Haddonfield
424,27.9646718,-82.5206425,33607,FL,Tampa
425,53.517033,-113.496687,T6E 4E2,AB,Edmonton
426,32.2185242,-110.9422112,85719,AZ,Tucson
427,40.1794012,-75.1311418,19044,PA,Horsham
428,30.0144336,-90.2402643,70065,LA,Kenner
429,40.0035262,-75.2315294,19004,PA,Bala Cynwyd
430,38.5062356465,-90.3315210422,63129,MO,St. Louis
431,28.0536294,-82.4044188,33617,FL,Tampa
432,34.4362361,-119.7261474,93105,CA,Santa Barbara
433,27.7823648981,-82.7816953479,33706,FL,Treasure Island
434,40.154956,-75.4013789,19403,PA,Norristown
435,43.6192496,-116.2135189,83702,ID,Boise
436,39.7733919,-86.0860599,46201,IN,Indianapolis
437,39.950036,-75.162158,19107,PA,Philadelphia
438,40.0149445,-75.0903154,19124,PA,Philadelphia
439,38.5939549,-90.2291931,63118,MO,Saint Louis
440,30.006267,-90.158554,70002,LA,Metairie
441,40.2501841838,-75.2433013916,18936,PA,Montgomeryville
442,27.9444574,-82.4578244,33602,FL,Tampa
443,32.2201995,-110.9415829,85719,AZ,Tucson
444,39.9418766,-75.1451988,19147,PA,Philadelphia
445,39.524816,-119.8160819,89501,NV,Reno
446,38.6811546,-90.496384,63017,MO,Chesterfield
447,40.180187,-74.87527,19047,PA,Langhorne
448,43.6320897,-116.2863998,83704,ID,Boise
449,39.9150107,-75.1585852,19148,PA,Philadelphia
450,38.5147339,-90.4494905,63026,MO,Fenton
451,28.4934721999,-82.546930168,34608,FL,Spring Hill
452,39.9048037,-86.0898087,46250,IN,Indianapolis
453,39.949485,-75.1673521,19102,PA,Philadelphia
454,39.926237738,-86.2348430873,46268,IN,Indianapolis
455,28.0720088,-82.5109518,33618,FL,Tampa
456,39.51769,-119.882714,89523,NV,Reno
457,28.1943032,-82.4986764,33558,FL,Lutz
458,32.149473,-110.9781864,85706,AZ,Tucson
459,27.9263727,-82.2859355,33511,FL,Brandon
460,29.9297373,-90.0761184,70130,LA,New Orleans
461,39.6773020944,-75.4953995347,08070,NJ,Pennsville
462,39.8826936,-75.0583844,08035,NJ,Haddon Heights
463,28.0745649,-82.4599126,33613,FL,Tampa
464,40.2083354009,-74.7994599431,19067,PA,Morrisville
465,39.875143,-86.0824,46220,IN,Indianapolis
466,39.9253438,-86.1131045,46240,IN,Indianapolis
467,40.0740089,-75.0131956,19114,PA,Philadelphia
468,39.8545563,-86.0868326,46226,IN,Indianapolis
469,40.0054237,-75.1507198,19140,PA,Philadelphia
470,43.5778152,-116.2877241,83709,ID,Boise
471,34.4305419,-119.882367,93117,CA,Goleta
472,43.6198388,-116.2930669,83704,ID,Boise
473,39.9535919923,-75.1794226902,19103,PA,Philadelphia
474,38.5849132,-90.2928102,63109,MO,Saint Louis
475,38.7860901654,-90.4157752544,63042,MO,Hazelwood
476,38.5787245,-90.2822168,63109,MO,St. Louis
477,29.9668143,-90.0895672,70119,LA,New Orleans
478,28.07347,-82.459879,33613,FL,Tampa
479,32.2212624,-110.9200676,85716,AZ,Tucson
480,39.7802203,-86.1418027,46202,IN,Indianapolis
481,27.865613,-82.7199909,33782,FL,Pinellas Park
482,36.387932573,-87.0147362534,37146,TN,View
483,39.472575,-119.788467,89502,NV,Reno
484,27.9788772,-82.8279609,33767,FL,Clearwater
485,27.9210171,-82.3272616,33511,FL,Brandon
486,28.0662007,-82.6354932,33626,FL,Tampa
487,40.2085934,-75.2826768,19454,PA,North Wales
488,39.9386338,-75.3556319,19064,PA,Springfield
489,39.9606936,-75.2628592,19082,PA,Upper Darby
490,39.9610226,-75.6037869,19382,PA,West Chester
491,40.3296162,-75.0946266,18902,PA,Doylestown
492,36.0431449,-86.7447411,37211,TN,Nashville
493,39.652461,-119.886915,89506,NV,Reno
494,40.250693877,-75.133774929,18976,PA,Warrington
495,39.9735828,-86.1990519,46032,IN,Carmel
496,32.207596,-110.881629,85711,AZ,Tucson
497,40.21786,-74.9266344309,19047,PA,Langhorne
498,32.2680738,-110.9923904,85705,AZ,Tucson
499,53.4885913,-113.4935085,T6H 2H4,AB,Edmonton
500,29.999648,-90.125123,70005,LA,Metairie
501,40.0911599,-75.358973,19406,PA,King of Prussia
502,38.8105909,-89.9524841,62025,IL,Edwardsville
503,40.0027825,-75.2222705,19131,PA,Philadelphia
504,39.5185256,-119.8050589,89502,NV,Reno
505,29.9590929529,-90.0646781349,70116,LA,New Orleans
506,39.9058765,-75.2917441,19036,PA,Glenolden
507,53.5417173,-113.4919398,T5J,AB,Edmonton
508,32.303741804,-111.009323614,85704,AZ,Tucson
509,40.0754184,-75.12843,19027,PA,Elkins Park
510,39.879183,-75.396768,19015,PA,Brookhaven
511,39.899973,-74.8231372,08055,NJ,Medford
512,38.6997469,-90.3459907,63114,MO,St Louis
513,35.9222345,-86.8717248,37064,TN,Franklin
514,27.8928435529,-82.7453122398,33773,FL,Largo
515,38.6369079537,-90.1954829934,63101,MO,St. Louis
516,27.963,-82.777749,33755,FL,Clearwater
517,36.0820981,-87.0932682,37082,TN,Kingston Springs
518,39.870111,-86.140302,46220,IN,Indianapolis
519,39.9970877,-86.0023117,46060,IN,Noblesville
520,40.18039,-74.87721,19047,PA,Langhorne
521,39.9511109,-75.1738185,19103,PA,Philadelphia
522,39.730892,-75.2245237,08062,NJ,Mullica Hill
523,32.218948,-110.956573,85719,AZ,Tucson
524,39.947207,-75.1572515,19107,PA,Philadelphia
525,39.9408715785,-75.1510468125,19147,PA,Philadelphia
526,39.997699,-75.0245834,08065,NJ,Palmyra
527,40.08178,-75.0267907,19114,PA,Philadelphia
528,40.042899,-75.488131,19301,PA,Paoli
529,39.8660830813,-85.9750978137,46236,IN,Indianapolis
530,39.9719414,-75.159771,19121,PA,Philadelphia
531,27.7715736064,-82.6756190881,33713,FL,St. Petersburg
532,32.1329588,-110.9953214,85746,AZ,Tucson
533,43.613448,-116.1999702,83702,ID,Boise
534,39.9390124,-75.1496014,19147,PA,Philadelphia
535,39.4715307,-119.78243,89502,NV,Reno
536,32.3499855,-110.9770334,85704,AZ,Oro Valley
537,39.960811,-75.1573883,19123,PA,Philadelphia
538,27.9600238,-82.4444005,33605,FL,Tampa
539,39.4395089,-119.7600672,89521,NV,Reno
540,39.9502871584,-75.1666990731,19102,PA,Philadelphia
541,39.505012,-119.815995,89509,NV,Reno
542,29.994939,-90.18365,70001,LA,Metairie
543,53.5710863856,-113.548768193,T5L 5B5,AB,Edmonton
544,34.4214452,-119.7014496,93101,CA,Santa Barbara
545,43.6082983398,-116.2906438802,83704,ID,Boise
546,40.3639078093,-74.9660219123,18938,PA,New Hope
547,39.52862,-119.802018,89502,NV,Reno
548,34.4392950745,-119.7443122433,93105,CA,Santa Barbara
549,39.6260045,-119.8826598,89506,NV,Reno
550,28.0114997,-82.5828401,33615,FL,Tampa
551,38.6378129,-90.390423,63124,MO,Saint Louis
552,40.1083808,-75.318943,19401,PA,Norristown
553,39.8996609,-74.9532997,08003,NJ,Cherry Hill
554,32.2712313189,-110.9920754497,85705,AZ,Tucson
555,38.6603769097,-90.3371429443,63130,MO,St Louis
556,34.4129345,-119.8555307,93117,CA,Isla Vista
557,27.8718285,-82.7502853,33777,FL,Pinellas Park
558,27.7717231748,-82.6383055959,33701,FL,St Petersburg
559,27.964721464,-82.5198229405,33629,FL,Tampa
560,43.6111922,-116.2062753,83702,ID,Boise
561,30.0008418937,-90.0582931191,70122,LA,New Orleans
562,36.1648001,-86.7799287,37219,TN,Nashville
563,39.8338475229,-75.1561730444,08096,NJ,Woodbury
564,32.0482633,-110.7738958,85747,AZ,Tucson
565,39.660383,-86.126028,46227,IN,Indianapolis
566,39.96917,-86.1273964,46032,IN,Carmel
567,36.162142,-86.516006,37122,TN,Mount Juliet
568,35.9326514238,-86.8246329642,37067,TN,Franklin
569,39.9710819,-86.1601728,46032,IN,Carmel
570,39.979376,-86.001692,46038,IN,Fishers
571,40.31862,-75.066274,18912,PA,Buckingham
572,40.0043533,-75.0222651,08065,NJ,Palmyra
573,39.7038868163,-86.1483024479,46227,IN,Indianapolis
574,36.16979,-86.51527,37122,TN,Mt. Juliet
575,39.958422,-75.158257,19107,PA,Philadelphia
576,43.6105119,-116.3913359,83642,ID,Meridian
577,39.9179115,-75.390854,19063,PA,Media
578,27.9279550671,-82.4784045787,33606,FL,Tampa
579,36.2766423,-86.6885468,37115,TN,Madison
580,40.0727142,-75.131515,19027,PA,Elkins Park
581,36.1433929232,-86.8141224616,37203,TN,Nashville
582,39.9056081,-86.0923487,46250,IN,Indianapolis
583,40.3586874,-74.97572,18938,PA,New Hope
584,38.7687445,-90.5219795,63303,MO,Saint Charles
585,29.9381313,-89.9492226,70043,LA,Chalmette
586,29.9672924,-90.09063,70119,LA,New Orleans
587,39.907554,-86.094345,46250,IN,Indianapolis
588,30.014963,-90.2391014,70065,LA,Kenner
589,29.9599126,-90.064281,70116,LA,New Orleans
590,38.4863979071,-90.5041513042,63049,MO,High Ridge
591,27.9963703,-82.580954,33615,FL,Tampa
592,39.47842,-119.7887358038,89502,NV,Reno
593,53.5428720873,-113.4995122836,T5J 1A7,AB,Edmonton
594,40.088398,-75.2926963,19428,PA,Conshohocken
595,28.2505165,-82.3737262,33544,FL,Wesley Chapel
596,28.4977,-82.650015,34607,FL,Hernando Beach
597,28.0686496,-82.5751466,33625,FL,Tampa
598,38.7790065,-90.2800209,63033,MO,Florissant
599,27.9588017985,-82.2789713027,33510,FL,Brandon
600,39.518222529,-119.7877136963,89502,NV,Reno
601,34.422317,-119.7036672,93101,CA,Santa Barbara
602,34.4290427,-119.8693616,93117,CA,Goleta
603,27.9345506,-82.2874462,33511,FL,Brandon
604,39.95604,-75.187797,19104,PA,Philadelphia
605,27.971329,-82.7078619,33759,FL,Tampa Bay
606,39.5876376,-119.8144518,89506,NV,Reno
607,38.6330839,-90.3064808,63117,MO,Saint Louis
608,39.7501430085,-75.023877181,08081,NJ,Sicklerville
609,40.031578,-75.104787,19124,PA,Philadelphia
610,27.944153,-82.46033,33606,FL,Tampa
611,40.2285432,-74.9370146,18940,PA,Newtown
612,38.665449,-90.3147533,63130,MO,University City
613,38.6133033,-90.2678361,63110,MO,Saint Louis
614,53.6161467,-113.4324244,T5Y 2W1,AB,Edmonton
615,40.2884395,-75.2090623,18914,PA,Chalfont
616,34.4167818,-119.6951394,93101,CA,Santa Barbara
617,39.5295616355,-119.8145651258,89501,NV,Reno
618,39.6106515,-86.3720313,46158,IN,Mooresville
619,39.916175541,-75.3876546369,19063,PA,Media
620,36.2467393,-86.7204366,37115,TN,Madison
621,40.089985,-75.382315,19406,PA,King of Prussia
622,38.5245347,-90.355678,63123,MO,Saint Louis
623,40.0818389,-75.2989657,19428,PA,Conshohocken
624,28.185208,-82.406265,33559,FL,Lutz
625,39.8808598,-75.5482765,19317,PA,Chadds Ford
626,39.65126,-75.31747,08098,NJ,Woodstown
627,28.1948998,-82.3542155,33544,FL,Wesley Chapel
628,28.0148425,-82.1231756,33563,FL,Plant City
629,43.671633,-116.283591,83714,ID,Boise
630,32.3389931,-110.9268201,85718,AZ,Catalina Foothills
631,27.8669377,-82.6450314,33716,FL,St. Petersburg
632,40.20092,-75.1014011,18974,PA,Warminster
633,39.948321,-75.151952,19106,PA,Philadelphia
634,39.8449751,-86.2541234,46254,IN,Indianapolis
635,28.4352625,-82.5669664,34608,FL,Spring Hill
636,39.982542,-75.268542,19096,PA,Philadelphia
637,39.7664200969,-86.1592453161,46204,IN,Indianapolis
638,32.2194299,-110.9684979,85701,AZ,Tucson
639,28.4348331,-82.5427423,34609,FL,Spring HIll
640,53.4945772799,-113.517946463,T6H 3G1,AB,Edmonton
641,40.035282,-75.5552598633,19355,PA,Malvern
642,39.9499183,-75.1600036,19107,PA,Philadelphia
643,39.7654488,-86.3067317,46214,IN,Indianapolis
644,38.6842092,-90.2666103,63120,MO,Saint Louis
645,28.056632,-82.4348671,33612,FL,Tampa
646,27.9451907,-82.7880287,33756,FL,Clearwater
647,27.925332,-82.325395,33511,FL,Brandon
648,39.8977114,-75.0333462,08033,NJ,Haddonfield
649,43.625567,-116.2109944,83702,ID,Boise
650,36.1431224,-86.79351,37212,TN,Nashville
651,53.5695004,-113.494179,T5G 0X9,AB,Edmonton
652,40.0992739,-75.1256228,19046,PA,Jenkintown
653,39.948365,-75.1744997,19103,PA,Philadelphia
654,40.1270723,-75.3353875,19401,PA,Norristown
655,32.23505288,-110.89693127,85712,AZ,Tucson
656,36.044073,-86.955886,37221,TN,Nashville
657,32.0872287083,-110.9234619141,85756,AZ,Tucson
658,27.9916199,-82.7303756,33763,FL,Clearwater
659,40.136096,-74.873249,19057,PA,Levittown
660,39.4619710836,-119.7829868887,89511,NV,Reno
661,40.0884161,-74.9650112,19154,PA,Philadelphia
662,38.5984757,-89.9591083,62269,IL,O Fallon
663,27.7969762597,-82.6381678127,33704,FL,Saint Petersburg
664,27.9684516983,-82.7621585038,33764,FL,Clearwater
665,43.6693994,-116.2785626,83714,ID,Boise
666,34.419063,-119.6783917,93103,CA,Santa Barbara
667,27.713401,-82.394372,33570,FL,Ruskin
668,32.3312255,-111.0341183,85741,AZ,Tucson
669,40.2426292,-75.242665,18936,PA,Montgomeryville
670,36.1522694,-86.785108,37203,TN,Nashville
671,39.8688265,-86.1438939,46220,IN,Indianapolis
672,40.0750524,-75.2945235,19428,PA,Conshohocken
673,27.961201,-82.72336,33759,FL,Clearwater
674,39.526407,-119.812194,89501,NV,Reno
675,32.192069013,-110.9610276835,85713,AZ,Tucson
676,39.9619789,-75.5989619,19382,PA,West Chester
677,38.62468,-90.5150663,63017,MO,Town and Country
678,39.4714884,-119.7767248,89502,NV,Reno
679,38.6041071,-89.8085329,62254,IL,Lebanon
680,39.9124556,-75.0022657,08034,NJ,Cherry Hill
681,38.745042,-90.4163876,63044,MO,Bridgeton
682,32.2014539061,-110.823107399,85710,AZ,Tucson
683,32.1363344,-110.9278446,85706,AZ,Tucson
684,40.223222,-75.399023,19474,PA,Skippack
685,32.360965,-110.986644,85704,AZ,Tucson
686,32.2904784,-110.9798195,85705,AZ,Tucson
687,39.7990368,-86.2675982,46224,IN,Indianapolis
688,28.0424255,-82.5124529,33618,FL,Tampa
689,39.9403745,-75.1456109,19147,PA,Philadelphia
690,36.1366299,-86.8004366,37212,TN,Nashville
691,40.2874285,-75.1270612,18901,PA,Doylestown
692,34.4189939,-119.6950684,93101,CA,Santa Barbara
693,28.0451503082,-82.6812278379,34677,FL,Tampa
694,39.5220877,-119.8133893,89501,NV,Reno
695,40.024588,-75.3242387,19010,PA,Bryn Mawr
696,32.4447834344,-111.1019316965,85730,AZ,Tucson
697,38.6348961,-90.2210235,63103,MO,Saint Louis
698,39.912338414,-75.2230943868,19153,PA,Philadelphia
699,27.923037933,-82.4930161956,33629,FL,Tampa
700,27.9822896,-82.7057138,34695,FL,Safety Harbor
701,39.551173,-119.8046379,89512,NV,Reno
702,38.5668422,-90.3445699,63119,MO,St. Louis
703,29.963974,-90.0426042,70117,LA,New Orleans
704,39.5351105,-119.7548567,89431,NV,Sparks
705,28.4919153,-82.544815,34608,FL,Spring Hill
706,27.9910123,-82.1221107244,33563,FL,Plant City
707,27.7846206,-82.6383517,33701,FL,Saint Petersburg
708,39.9249328,-75.3402158,19064,PA,Springfield
709,40.3652475,-74.9519527,18938,PA,New Hope
710,38.7061191433,-90.2701565031,63136,MO,Jennings
711,36.1632454,-86.7760574,37201,TN,Nashville
712,39.5309028,-119.8080593,89512,NV,Reno
713,38.7825309858,-90.5346399689,63303,MO,Saint Charles
714,29.949161,-90.132406,70118,LA,New Orleans
715,29.9244207343,-90.1079344048,70115,LA,New Orleans
716,29.9570466757,-90.070387,70170,LA,New Orleans
717,28.2638132,-82.492625,34638,FL,Land O' Lakes
718,43.6914869,-116.3351664,83616,ID,Eagle
719,40.165983,-74.995869,19053,PA,Feasterville
720,39.7132613,-86.2360801,46221,IN,Indianapolis
721,40.2427158,-75.6180811,19464,PA,Pottstown
722,53.5126039502,-113.3179124712,T8A 2G4,AB,Sherwood Park
723,43.6675459002,-116.2767655402,83714,ID,Boise
724,27.9082595,-82.2909146,33511,FL,Brandon
725,43.684826,-116.403473,83616,ID,Eagle
726,32.219336,-110.8413116,85710,AZ,Tucson
727,28.187946572,-82.3500558385,33543,FL,Wesley Chapel
728,34.3965102,-119.5216815,93013,CA,Carpinteria
729,27.8940624,-82.2719595,33511,FL,Brandon
730,39.935618,-86.159413,46032,IN,Carmel
731,28.0439,-82.6769,34677,FL,Oldsmar
732,39.9515211,-75.1798731,19103,PA,Philadelphia
733,39.8748864619,-86.1195512452,46220,IN,Indianapolis
734,39.848349,-74.97713,08043,NJ,Voorhees
735,39.8895323,-74.9266315,08053,NJ,Marlton
736,29.958501,-90.06163,70116,LA,New Orleans
737,38.6376776,-90.3195495,63105,MO,Saint Louis
738,36.181686,-86.624583,37076,TN,Nashville
739,40.185507,-75.574882,19475,PA,Spring City
740,27.894047,-82.2572688,33596,FL,Valrico
741,27.9112563,-82.315876,33511,FL,Brandon
742,53.5177345,-113.4666105,T6C 0Z3,AB,Edmonton
743,36.1429685,-86.7923549,37212,TN,Nashville
744,53.5452767,-113.6121675,T5P 4B3,AB,Edmonton
745,27.8585758,-82.3397635,33578,FL,Tampa Bay
746,40.0091374,-75.6163078,19380,PA,West Chester
747,39.9223225281,-75.1527823,19148,PA,Philadelphia
748,43.5940744,-116.3860335,83642,ID,Meridian
749,40.1751076427,-75.0432257715,18966,PA,Southampton
750,53.4957867,-113.6666016,T6M,AB,Edmonton
751,39.518748,-119.809884,89501,NV,Reno
752,27.7951457,-82.7299515,33710,FL,Saint Petersburg
753,29.9518688643,-90.070132555,70170,LA,New Orleans
754,39.905771308,-86.0607146613,46250,IN,Indianapolis
755,27.870901,-82.7435853,33777,FL,Largo
756,39.978629,-86.1287849,46032,IN,Carmel
757,40.0265391,-75.330126,19010,PA,Bryn Mawr
758,32.290928,-110.97878,85705,AZ,Tucson
759,36.0810108,-86.7280648,37211,TN,Nashville
760,27.920067,-82.4989209,33629,FL,Tampa
761,38.5920583,-90.3020666,63109,MO,Saint Louis
762,28.290178,-82.4644445,34637,FL,Land O Lakes
763,40.0377027,-74.9592809,08075,NJ,Riverside
764,32.2211321,-110.8703351,85711,AZ,Tucson
765,40.3664177,-74.9416785,08530,NJ,Lambertville
766,38.6667839,-90.4332859,63141,MO,Creve Coeur
767,39.6385027425,-119.7128690779,89441,NV,Sparks
768,28.083473,-82.5772677,33626,FL,Tampa
769,27.9955205,-82.512474,33614,FL,Tampa
770,39.9497725,-75.1693442,19103,PA,Philadelphia
771,39.768973,-86.153309,46204,IN,Indianapolis
772,27.7854888011,-82.7302946082,33710,FL,St Petersburg
773,27.9407591,-82.5104655,33609,FL,Tampa
774,38.6153507,-90.2860213,63110,MO,St Louis
775,31.912481,-110.98188,85614,AZ,Green Valley
776,32.2798568,-111.0203165,85750,AZ,Tucson
777,32.1336285,-110.9319893,85706,AZ,Tucson
778,39.9575816,-86.0106627,46038,IN,Fishers
779,29.9316559894,-90.0736488057,70130,LA,New Orleans
780,43.6192456,-116.2546881,83704,ID,Boise
781,32.2436522,-110.8859797,85712,AZ,Tucson
782,39.8317759,-86.2404209,46254,IN,Indianapolis
783,32.2061817,-110.8382603,85710,AZ,Tucson
784,40.2340046,-74.9414872286,18940,PA,Newtown
785,40.154294,-75.2229125,19002,PA,Ambler
786,27.7127624,-82.6467828,33705,FL,Saint Petersburg
787,39.5425853958,-119.85849863,89503,NV,Reno
788,38.5951303,-90.478697,63011,MO,Manchester
789,39.941645,-75.116872,08102,NJ,Camden
790,40.0311008,-75.1241902,19120,PA,Philadelphia
791,39.5204967,-119.811906,89501,NV,Reno
792,39.5368175,-119.8166841,89503,NV,Reno
793,40.0072693,-75.2205981,19004,PA,Bala Cynwyd
794,39.5424616,-119.8410174,89503,NV,Reno
795,32.2559704,-110.9605081,85719,AZ,Tucson
796,36.1636657502,-86.7784967447,37219,TN,Nashville
797,40.364578,-74.9446533,08530,NJ,Lambertville
798,40.2868003715,-75.2658470701,19440,PA,Hatfield
799,36.163323,-86.7765917,37201,TN,Nashville
800,38.7873899037,-90.5121919513,63301,MO,St. Charles
801,27.7852179,-82.7821118,33708,FL,Madeira Beach
802,39.86369,-75.07774,08031,NJ,Bellmawr
803,39.9005134803,-74.8318005102,08055,NJ,Medford
804,53.6301604595,-113.5449765623,T6V 1J6,AB,Edmonton
805,39.949195,-75.1629437,19107,PA,Philadelphia
806,39.809651,-86.158532,46208,IN,Indianapolis
807,36.1447155,-86.8158048,37203,TN,Nashville
808,32.2350032,-110.8112056,85710,AZ,Tucson
809,53.5434724374,-113.3181441121,T8H 2A2,AB,Sherwood Park
810,27.786086,-82.783245,33708,FL,Madeira Beach
811,39.8050368,-75.0275069,08021,NJ,Clementon
812,39.85806,-86.390022,46112,IN,Brownsburg
813,40.2712779,-75.2236121,18914,PA,Chalfont
814,34.413384,-119.7003408,93101,CA,Santa Barbara
815,28.0173889,-82.734549,33761,FL,Clearwater
816,43.605278,-116.286249,83709,ID,Boise
817,39.80203,-86.010737,46219,IN,Indianapolis
818,39.9315261618,-75.1607671842,19147,PA,Philadelphia
819,34.4366626,-119.6320753,93108,CA,Montecito
820,28.2321228,-82.7307355,34652,FL,New Port Richey
821,29.9649841114,-90.0422938596,70117,LA,New Orleans
822,39.94796,-75.22198,19143,PA,Philadelphia
823,38.9491828,-90.1903059,62035,IL,Godfrey
824,27.9958415,-82.5722699,33615,FL,Tampa
825,40.1636298296,-75.2320228175,19002,PA,Ambler
826,39.519632,-119.814983,89509,NV,Reno
827,27.8518283,-82.7865319,33772,FL,Seminole
828,32.1335924,-110.9239561,85706,AZ,Tucson
829,29.9733253,-90.0810244,70119,LA,New Orleans
830,36.1482816,-86.8081665,37203,TN,Nashville
831,40.1198350243,-74.8050415413,08518,NJ,Florence Township
832,28.0642084807,-82.5053286552,33618,FL,Tampa
833,39.613819,-86.108813,46142,IN,Greenwood
834,39.70853637,-86.14808449,46227,IN,Indianapolis
835,53.5655216193,-113.322853048,T8H 0C1,AB,Sherwood Park
836,40.141292,-75.389286,19403,PA,Norristown
837,38.4935850144,-89.8207885399,62258,IL,Mascoutah
838,28.187705,-82.685196,34655,FL,Trinity
839,39.7053901,-75.1136931,08028,NJ,Glassboro
840,38.6147277,-90.3344697,63144,MO,Saint Louis
841,53.551925,-113.4896661,T5H 2L9,AB,Edmonton
842,27.9278613,-82.7961982,33770,FL,Largo
843,35.9641647,-86.8197583,37027,TN,Brentwood
844,32.264931,-110.9352396,85716,AZ,Tucson
845,36.024589,-86.71193,37211,TN,Nashville
846,39.916113059,-74.9215189617,08053,NJ,Marlton
847,38.5994556,-90.2425985,63118,MO,Saint Louis
848,34.4399258,-119.6939139,93103,CA,Santa Barbara
849,38.5616342,-89.896862,62269,IL,O Fallon
850,53.5439617,-113.6295996,T5S 1M9,AB,Edmonton
851,38.6184117,-90.2741825,63110,MO,St. Louis
852,39.752017,-75.0777688,08080,NJ,Sewell
853,36.1300497,-86.8016849,37212,TN,Nashville
854,53.544389,-113.4909267,,AB,Edmonton
855,39.8981757,-75.0165475,08034,NJ,Cherry Hill
856,39.7687065,-75.504173,19809,DE,Wilmington
857,40.035169,-75.216409,19128,PA,Philadelphia
858,43.6135729,-116.1999038,83702,ID,Boise
859,40.0911552,-75.3887632,19406,PA,King Of Prussia
860,39.9514625,-75.1662577,19102,PA,Philadelphia
861,43.6046712,-116.22804,83706,ID,Boise
862,32.3527211,-111.0908436,85743,AZ,Tucson
863,43.603023,-116.187203,83712,ID,Boise
864,39.953291,-75.173645,19103,PA,Philadelphia
865,29.9724753,-90.0724686,70116,LA,New Orleans
866,39.988107,-75.105553,19134,PA,Philadelphia
867,39.949603,-75.1649701595,19102,PA,Philadelphia
868,40.2210871,-74.8720194,19067,PA,Yardley
869,40.1535069,-75.3032712,19422,PA,Blue Bell
870,38.5790831,-90.4066417,63122,MO,Saint Louis
871,29.976258,-90.076105,70119,LA,New Orleans
872,36.3254421616,-86.7131666746,37072,TN,Goodlettsville
873,34.4381407,-119.6151426,93108,CA,Santa Barbara
874,40.0153779791,-74.9543424694,08075,NJ,Delran
875,40.0609699,-75.1674125,19150,PA,Philadelphia
876,39.9033171,-75.2844083,19036,PA,Glenolden
877,36.1373207229,-86.8005514517,37212,TN,Nashville
878,40.039782,-75.369961,19087,PA,St. Davids
879,34.4408006,-119.7494444,93105,CA,Santa Barbara
880,40.2466542,-75.6510162,19464,PA,Pottstown
881,40.03825,-75.12988,19120,PA,Philadelphia
882,30.023792,-90.1136223,70124,LA,New Orleans
883,27.771165,-82.711946,33710,FL,St. Petersburg
884,39.6720582582,-75.6489002742,19702,DE,Newark
885,40.0585837224,-75.6544678,19341,PA,Exton
886,40.0427175,-75.5376779,19355,PA,Malvern
887,40.1983653,-75.0865462,18974,PA,Warminster
888,27.882396,-82.507136,33611,FL,Tampa
889,27.947168,-82.347765,33619,FL,Tampa
890,36.1520443,-86.7846698,37203,TN,Nashville
891,39.5836527,-119.740935,89431,NV,Sparks
892,28.1919576,-82.3915434,33559,FL,Lutz
893,39.8540036,-86.2406392,46254,IN,Indianapolis
894,39.9199693,-75.2984646,19018,PA,Primos
895,32.3389931,-110.9268201,85718,AZ,Tucson
896,39.9535003,-75.1450636,19106,PA,Philadelphia
897,28.1815811,-82.4675332,33548,FL,Lutz
898,40.2399640722,-75.122795105,18976,PA,Warrington
899,53.5878652,-113.4915257,T5E 4C2,AB,Edmonton
900,27.891747588,-82.7864744514,33778,FL,Largo
901,43.5896886,-116.3670907,83642,ID,Meridian
902,40.0903977316,-75.0926760348,19006,PA,Huntingdon Valley
903,39.916169,-75.382347,19063,PA,Media
904,39.9208234,-75.1600292,19148,PA,Philadelphia
905,40.09035,-75.124453,19046,PA,Jenkintown
906,39.5270515,-119.8117041,89501,NV,Reno
907,39.4772227,-119.7930507,89509,NV,Reno
908,35.9443945,-86.878041,37064,TN,Franklin
909,43.6161949628,-116.2027077,83702,ID,Boise
910,39.904151,-86.083809,46250,IN,Indianapolis
911,40.228372,-75.259942,19454,PA,North Wales
912,39.9169,-74.97572,08034,NJ,Cherry Hill
913,28.130283,-82.364992,33647,FL,Tampa
914,34.597239,-119.510772,93105,CA,Santa Barbara
915,40.0679151372,-75.007130852,19114,PA,Philadelphia
916,35.9459704793,-86.8279486659,37067,TN,Franklin
917,29.9522480802,-90.0782639989,70112,LA,New Orleans
918,38.6125465,-90.2380408,63104,MO,Saint Louis
919,32.3553130924,-111.0425949097,85741,AZ,Tucson
920,38.612049,-90.337262,63144,MO,Saint Louis
921,29.9170045,-90.0982621,70115,LA,New Orleans
922,34.4304533,-119.8723449,93117,CA,Goleta
923,39.9686973,-75.1606146,19130,PA,Philadelphia
924,27.9235861218,-82.813243866,33770,FL,Bellair
925,28.137927,-82.4626332,33549,FL,Lutz
926,32.2066779,-110.9205967,85713,AZ,Tucson
927,39.9686127,-75.2934923,19082,PA,Upper Darby
928,39.9350642,-75.1516194,19147,PA,Philadelphia
929,39.91576,-75.068382,08108,NJ,Collingswood
930,28.2574576,-82.7057537,34653,FL,New Port Richey
931,36.2244538,-86.5418712,37122,TN,Mount Juliet
932,29.892187,-90.122823,70072,LA,Marrero
933,43.6116121,-116.289829,83704,ID,Boise
934,39.898768,-75.0308545,08033,NJ,Haddonfield
935,38.6735532,-90.4204985,63141,MO,Creve Coeur
936,29.9581357837,-90.0627262625,70116,LA,New Orleans
937,39.808992,-86.1352054,46205,IN,Indianapolis
938,43.5788371,-116.2131613,83705,ID,Boise
939,36.1226231735,-86.7761365195,37204,TN,Nashville
940,39.9374871,-75.0363126,08002,NJ,Cherry Hill
941,39.9510885597,-75.1989988336,19104,PA,Philadelphia
942,32.248933,-110.8494221,85715,AZ,Tucson
943,28.1458808,-82.6099872,33556,FL,Odessa
944,39.9762075,-74.8695361,08054,NJ,Mount Laurel
945,40.0546590698,-75.6621820117,19341,PA,Exton
946,32.2063037,-110.7883369,85748,AZ,Tucson
947,34.4157471,-119.6884801,93101,CA,Santa Barbara
948,36.308867,-86.675097,37115,TN,Nashville
949,53.5126210396,-113.3219998596,T8A 4N5,AB,Sherwood Park
950,43.6048735,-116.2900126,83709,ID,Boise
951,32.206256,-110.8889135,85711,AZ,Tucson
952,39.9487514826,-75.1604487143,19107,PA,Philadelphia
953,27.953914,-82.5285509,33607,FL,Tampa
954,39.9091231251,-75.2841462163,19023,PA,Collingdale
955,32.2324455,-110.9516985,85719,AZ,Tucson
956,40.138836,-75.1952339,19034,PA,Fort Washington
957,36.3027229388,-86.6324932185,37075,TN,Hendersonville
958,29.9543868,-90.0683629,70130,LA,New Orleans
959,32.3088305,-110.8454971,85750,AZ,Tucson
960,32.2641514437,-110.9462645061,85719,AZ,Tucson
961,39.9646635,-75.602043,19380,PA,West Chester
962,27.962428,-82.714922,33759,FL,Clearwater
963,40.3440642584,-75.2745207788,18962,PA,Silverdale
964,27.834780999,-82.3281975657,33569,FL,Riverview
965,40.0442635,-75.3993543,19087,PA,Wayne
966,40.219679,-75.508814,19468,PA,Limerick
967,39.9123803,-75.0556731,08108,NJ,Haddon Township
968,32.2425392,-110.9715663,85705,AZ,Tucson
969,32.2739894,-110.9775344,85705,AZ,Tucson
970,29.9458702,-90.0704978,70130,LA,New Orleans
971,53.5444719,-113.6413167,T5S 0B9,AB,Edmonton
972,30.0200051249,-90.2493493809,70065,LA,Kenner
973,40.008172972,-75.3014928128,19003,PA,Ardmore
974,32.1335999945,-110.9745180774,85706,AZ,Tucson
975,27.854197,-82.6474272852,33702,FL,St. Petersburg
976,32.2497812,-110.8909436,85712,AZ,Tucson
977,38.596068,-90.493565,63011,MO,Ballwin
978,40.0944575489,-75.3974799022,19406,PA,King of Prussia
979,40.000157,-74.9873134,08077,NJ,Cinnaminson
980,32.1949772399,-110.9686693634,85713,AZ,Tucson
981,39.944743,-75.160428,19106,PA,Philadelphia
982,36.202427,-86.692898,37214,TN,Nashville
983,27.8877925,-82.7213744,33773,FL,Largo
984,38.6168931,-90.2611424,63110,MO,Saint Louis
985,39.850895,-86.1393779,46220,IN,Indianapolis
986,39.4780893,-119.7649205,89502,NV,Reno
987,39.4657110269,-119.7798574532,89511,NV,Reno
988,35.9173052,-86.8296648,37067,TN,Franklin
989,40.0548501663,-75.6648682058,19341,PA,Lionville
990,27.9955961525,-82.5828616138,33615,FL,Tampa
991,40.3331505,-75.1375955,18902,PA,Doylestown
992,40.0357941,-75.218028,19128,PA,Philadelphia
993,39.771262889,-86.0611667244,46219,IN,Indianapolis
994,29.9757236,-90.1555333,70001,LA,Metairie
995,27.8832644164,-82.5065423958,33616,FL,Tampa
996,32.1637404,-110.9167218,85714,AZ,Tucson
997,39.9511539,-75.1673349,19103,PA,Philadelphia
998,27.9201938271,-82.7763634482,33770,FL,Largo
999,35.948462,-86.823777,37067,TN,Franklin
1000,39.9691898,-75.1340384,19125,PA,Philadelphia
